NORAD_CAT_ID,OBJECT_NAME,OBJECT_TYPE,EPOCH,MEAN_MOTION,ECCENTRICITY,INCLINATION,RA_OF_ASC_NODE,ARG_OF_PERICENTER,MEAN_ANOMALY,BSTAR,MEAN_MOTION_DOT,MEAN_MOTION_DDOT,TLE_LINE0,TLE_LINE1,TLE_LINE2,SEMIMAJOR_AXIS,PERIOD,APOGEE,PERIGEE,DECAYED
53294.0,STARLINK-4146,PAYLOAD,2022-11-02 18:00:02,15.35268414,0.0001219,53.2174,265.0614,77.8518,202.3232,-0.033381,-0.01064584,0.0,0 STARLINK-4146,1 53294U 22086BE  22306.75002315 -.01064584  00000-0 -33381-1 0  9996,2 53294  53.2174 265.0614 0001219  77.8518 202.3232 15.35268414  1307,6838.26,93.795,460.959,459.292,0.0
53294.0,STARLINK-4146,PAYLOAD,2022-11-03 02:10:43,15.36414138,0.0001944,53.218,263.4504,131.9084,228.2086,-0.0090153,-0.00312234,0.0,0 STARLINK-4146,1 53294U 22086BE  22307.09078689 -.00312234  00000-0 -90153-2 0  9999,2 53294  53.2180 263.4504 0001944 131.9084 228.2086 15.36414138 16586,6834.86,93.725,458.054,455.397,0.0
53294.0,STARLINK-4146,PAYLOAD,2022-11-03 08:25:49,15.35955779,6.459999999999997e-05,53.2173,262.2363,55.3552,304.7513,-0.0088679,-0.0030295,0.0,0 STARLINK-4146,1 53294U 22086BE  22307.35126799 -.00302950  00000-0 -88679-2 0  9998,2 53294  53.2173 262.2363 0000646  55.3552 304.7513 15.35955779 16625,6836.22,93.753,458.527,457.643,0.0
53294.0,STARLINK-4146,PAYLOAD,2022-11-04 17:18:12,15.32799755,9.1e-05,53.218,255.8813,355.2701,4.8293,-0.0097308,-0.00300703,0.0,0 STARLINK-4146,1 53294U 22086BE  22308.72098191 -.00300703  00000-0 -97308-2 0  9997,2 53294  53.2180 255.8813 0000910 355.2701   4.8293 15.32799755 16836,6845.601,93.946,468.089,466.843,0.0
53294.0,STARLINK-4146,PAYLOAD,2022-11-04 22:00:22,15.32121149,0.0001667,53.2173,254.9697,54.6857,305.4301,-0.0084911,-0.00258358,0.0,0 STARLINK-4146,1 53294U 22086BE  22308.91692340 -.00258358  00000-0 -84911-2 0  9998,2 53294  53.2173 254.9697 0001667  54.6857 305.4301 15.32121149 16869,6847.621999999999,93.987,470.628,468.345,0.0
53294.0,STARLINK-4146,PAYLOAD,2022-11-05 10:32:52,15.31298862,0.0001710999999999,53.2182,252.5498,175.5334,184.5683,-0.010572,-0.00311235,0.0,0 STARLINK-4146,1 53294U 22086BE  22309.43949210 -.00311235  00000-0 -10572-1 0  9992,2 53294  53.2182 252.5498 0001711 175.5334 184.5683 15.31298862 17142,6850.073,94.038,473.11,470.766,0.0
53294.0,STARLINK-4146,PAYLOAD,2022-11-05 15:15:46,15.30449475,0.0001064,53.2177,251.6494,250.2102,109.8785,-0.013071,-0.0037166,0.0,0 STARLINK-4146,1 53294U 22086BE  22309.63595558 -.00371660  00000-0 -13071-1 0  9991,2 53294  53.2177 251.6494 0001064 250.2102 109.8785 15.30449475 16977,6852.607,94.09,475.201,473.74300000000005,0.0
53294.0,STARLINK-4146,PAYLOAD,2022-11-06 02:14:28,15.29728552,0.0002677,53.2169,249.5329,335.3905,24.6968,-0.0093517,-0.00263919,0.0,0 STARLINK-4146,1 53294U 22086BE  22310.09338655 -.00263919  00000-0 -93517-2 0  9997,2 53294  53.2169 249.5329 0002677 335.3905  24.6968 15.29728552 17048,6854.76,94.134,478.46,474.79,0.0
53294.0,STARLINK-4146,PAYLOAD,2022-11-06 11:40:01,15.28842615,0.0001001,53.2173,247.7281,176.0634,184.0375,-0.011196,-0.00305625,0.0,0 STARLINK-4146,1 53294U 22086BE  22310.48612426 -.00305625  00000-0 -11196-1 0  9994,2 53294  53.2173 247.7281 0001001 176.0634 184.0375 15.28842615 17105,6857.408,94.189,479.959,478.587,0.0
53294.0,STARLINK-4146,PAYLOAD,2022-11-06 14:48:53,15.28285201,0.0001107,53.2179,247.1282,178.6687,181.4316,-0.012749,-0.00340486,0.0,0 STARLINK-4146,1 53294U 22086BE  22310.61728355 -.00340486  00000-0 -12749-1 0  9997,2 53294  53.2179 247.1282 0001107 178.6687 181.4316 15.28285201 17129,6859.075,94.223,481.7,480.181,0.0
53294.0,STARLINK-4146,PAYLOAD,2022-11-07 00:14:33,15.27518286,0.000176,53.2184,245.3182,73.6307,286.4887,-0.01169,-0.00306403,0.0,0 STARLINK-4146,1 53294U 22086BE  22311.01011088 -.00306403  00000-0 -11690-1 0  9995,2 53294  53.2184 245.3182 0001760  73.6307 286.4887 15.27518286 17188,6861.371,94.271,484.443,482.028,0.0
53294.0,STARLINK-4146,PAYLOAD,2022-11-07 11:15:08,15.26526067,0.0001937,53.218,243.2102,141.8071,218.3067,-0.012358,-0.00313953,0.0,0 STARLINK-4146,1 53294U 22086BE  22311.46884393 -.00313953  00000-0 -12358-1 0  9991,2 53294  53.2180 243.2102 0001937 141.8071 218.3067 15.26526067 17252,6864.344,94.332,487.538,484.879,0.0
53294.0,STARLINK-4146,PAYLOAD,2022-11-07 19:07:18,15.25723922,0.0001458,53.2182,241.7059,98.157,261.9595,-0.01232,-0.00305798,0.0,0 STARLINK-4146,1 53294U 22086BE  22311.79673844 -.00305798  00000-0 -12320-1 0  9991,2 53294  53.2182 241.7059 0001458  98.1570 261.9595 15.25723922 17308,6866.749,94.381,489.616,487.61300000000006,0.0
53294.0,STARLINK-4146,PAYLOAD,2022-11-08 06:08:38,15.24791213,0.0004629,53.2176,239.5982,43.8667,316.2699,-0.013266,-0.00319711,0.0,0 STARLINK-4146,1 53294U 22086BE  22312.25600125 -.00319711  00000-0 -13266-1 0  9995,2 53294  53.2176 239.5982 0004629  43.8667 316.2699 15.24791213 17371,6869.549,94.439,494.594,488.235,0.0
53294.0,STARLINK-4146,PAYLOAD,2022-11-08 18:45:02,15.22917045,0.0001977,53.2162,237.2142,47.9854,312.1312,-0.0080453,-0.00186697,0.0,0 STARLINK-4146,1 53294U 22086BE  22312.78127546 -.00186697  00000-0 -80453-2 0  9992,2 53294  53.2162 237.2142 0001977  47.9854 312.1312 15.22917045 17452,6875.184,94.555,498.408,495.69,0.0
53294.0,STARLINK-4146,PAYLOAD,2022-11-09 02:38:17,15.22298002,0.000274,53.2168,235.712,44.4626,315.6592,-0.010759,-0.00243193,0.0,0 STARLINK-4146,1 53294U 22086BE  22313.10992805 -.00243193  00000-0 -10759-1 0  9993,2 53294  53.2168 235.7120 0002740  44.4626 315.6592 15.22298002 17504,6877.0480000000025,94.594,500.797,497.029,0.0
53294.0,STARLINK-4146,PAYLOAD,2022-11-09 13:40:54,15.21494422,0.0002612,53.2173,233.6123,41.431,318.6885,-0.012136,-0.00266991,0.0,0 STARLINK-4146,1 53294U 22086BE  22313.57007402 -.00266991  00000-0 -12136-1 0  9996,2 53294  53.2173 233.6123 0002612  41.4310 318.6885 15.21494422 17775,6879.469,94.644,503.131,499.537,0.0
53294.0,STARLINK-4146,PAYLOAD,2022-11-09 19:59:39,15.21215285,0.0002509,53.217,232.4112,36.7278,323.3891,-0.014429,-0.00312838,0.0,0 STARLINK-4146,1 53294U 22086BE  22313.83309707 -.00312838  00000-0 -14429-1 0  9997,2 53294  53.2170 232.4112 0002509  36.7278 323.3891 15.21215285 17613,6880.311,94.661,503.902,500.449,0.0
53294.0,STARLINK-4146,PAYLOAD,2022-11-10 02:18:55,15.20379228,0.0001520999999999,53.2173,231.2132,41.1029,319.0082,-0.015494,-0.00327096,0.0,0 STARLINK-4146,1 53294U 22086BE  22314.09648042 -.00327096  00000-0 -15494-1 0  9999,2 53294  53.2173 231.2132 0001521  41.1029 319.0082 15.20379228 17657,6882.833000000001,94.713,505.745,503.651,0.0
53294.0,STARLINK-4146,PAYLOAD,2022-11-10 10:12:38,15.19846991,0.0002433,53.2176,229.7131,49.5871,310.5338,-0.013705,-0.00286504,0.0,0 STARLINK-4146,1 53294U 22086BE  22314.42544853 -.00286504  00000-0 -13705-1 0  9992,2 53294  53.2176 229.7131 0002433  49.5871 310.5338 15.19846991 17903,6884.44,94.746,507.98,504.63,0.0
53294.0,STARLINK-4146,PAYLOAD,2022-11-10 18:07:00,15.19014851,0.0003176,53.2176,228.2172,216.2668,143.8113,-0.015656,-0.0031809,0.0,0 STARLINK-4146,1 53294U 22086BE  22314.75486909 -.00318090  00000-0 -15656-1 0  9998,2 53294  53.2176 228.2172 0003176 216.2668 143.8113 15.19014851 17757,6886.954000000002,94.798,511.006,506.631,0.0
53294.0,STARLINK-4146,PAYLOAD,2022-11-11 00:26:51,15.18180715,0.0001778,53.2178,227.0221,105.153,254.9663,-0.017345,-0.00342746,0.0,0 STARLINK-4146,1 53294U 22086BE  22315.01865117 -.00342746  00000-0 -17345-1 0  9992,2 53294  53.2178 227.0221 0001778 105.1530 254.9663 15.18180715 17791,6889.476,94.85,512.566,510.116,0.0
53294.0,STARLINK-4146,PAYLOAD,2022-11-11 11:30:06,15.18172843,0.0001012,53.2189,224.9348,70.1693,289.9413,-0.012224,-0.00244808,0.0,0 STARLINK-4146,1 53294U 22086BE  22315.47924408 -.00244808  00000-0 -12224-1 0  9992,2 53294  53.2189 224.9348 0001012  70.1693 289.9413 15.18172843 17863,6889.5,94.851,512.062,510.668,0.0
53294.0,STARLINK-4146,PAYLOAD,2022-11-11 21:01:04,15.16469591,0.0003132,53.2179,223.1492,97.6897,262.4454,-0.0146449999999999,-0.00278036,0.0,0 STARLINK-4146,1 53294U 22086BE  22315.87574649 -.00278036  00000-0 -14645-1 0  9993,2 53294  53.2179 223.1492 0003132  97.6897 262.4454 15.16469591 17923,6894.658,94.957,518.682,514.363,0.0
53294.0,STARLINK-4146,PAYLOAD,2022-11-12 01:46:21,15.15888399,5.629999999999999e-05,53.2179,222.2545,162.0214,198.0801,-0.015509,-0.00289055,0.0,0 STARLINK-4146,1 53294U 22086BE  22316.07385444 -.00289055  00000-0 -15509-1 0  9992,2 53294  53.2179 222.2545 0000563 162.0214 198.0801 15.15888399 17950,6896.42,94.994,518.673,517.8969999999998,0.0
53294.0,STARLINK-4146,PAYLOAD,2022-11-12 17:37:01,15.14742536,0.0002563,53.2168,219.2683,67.9891,292.1376,-0.013944,-0.00252894,0.0,0 STARLINK-4146,1 53294U 22086BE  22316.73404448 -.00252894  00000-0 -13944-1 0  9993,2 53294  53.2168 219.2683 0002563  67.9891 292.1376 15.14742536 18059,6899.897,95.066,523.531,519.994,0.0
53294.0,STARLINK-4146,PAYLOAD,2022-11-12 20:47:40,15.14206312,0.0001217,53.2184,218.6741,135.7,224.4092,-0.0172259999999999,-0.00305394,0.0,0 STARLINK-4146,1 53294U 22086BE  22316.86644199 -.00305394  00000-0 -17226-1 0  9997,2 53294  53.2184 218.6741 0001217 135.7000 224.4092 15.14206312 18270,6901.526,95.099,524.231,522.5509999999998,0.0
53294.0,STARLINK-4146,PAYLOAD,2022-11-12 22:22:52,15.14017068,0.0001249,53.218,218.3794,94.9992,265.1145,-0.016712,-0.00295128,0.0,0 STARLINK-4146,1 53294U 22086BE  22316.93254860 -.00295128  00000-0 -16712-1 0  9999,2 53294  53.2180 218.3794 0001249  94.9992 265.1145 15.14017068 18080,6902.101,95.111,524.828,523.104,0.0
53294.0,STARLINK-4146,PAYLOAD,2022-11-13 09:29:20,15.13085175,0.0002194,53.2181,216.2938,150.8689,209.2428,-0.018833,-0.00322745,0.0,0 STARLINK-4146,1 53294U 22086BE  22317.39538113 -.00322745  00000-0 -18833-1 0  9998,2 53294  53.2181 216.2938 0002194 150.8689 209.2428 15.13085175 18157,6904.935,95.17,528.315,525.285,0.0
